ORBCOMM FM20            
1 25416U 98046D   25263.97000867  .00001087  00000+0  40767-3 0  9992
2 25416  44.9938  87.6104 0001253  86.1942 273.9049 14.37380585418049
ORBCOMM FM16            
1 25417U 98046E   25264.26726703  .00001769  00000+0  61184-3 0  9993
2 25417  44.9935  76.4913 0004700  74.6378 285.4990 14.39147109418099
ORBCOMM FM15            
1 25418U 98046F   25264.19790150  .00001466  00000+0  51868-3 0  9995
2 25418  44.9965  82.2547 0004451  73.7854 286.3484 14.38785483418071
ORBCOMM FM14            
1 25419U 98046G   25264.19112474  .00001573  00000+0  54882-3 0  9991
2 25419  44.9956  80.2433 0003205  73.2333 286.8867 14.39164516418043
ORBCOMM FM13            
1 25420U 98046H   25263.97293513  .00001274  00000+0  46517-3 0  9996
2 25420  44.9971  90.2019 0005211  47.2114 312.9172 14.37872718417025
ORBCOMM FM21            
1 25475U 98053A   25264.14065423  .00001129  00000+0  42049-3 0  9996
2 25475  45.0074 175.0358 0002987 343.8264  16.2488 14.37520061411059
ORBCOMM FM22            
1 25476U 98053B   25264.10682448  .00001484  00000+0  52618-3 0  9992
2 25476  45.0067 169.2603 0004697 347.9315  12.1420 14.38610280411080
ORBCOMM FM23            
1 25477U 98053C   25264.12860424  .00001379  00000+0  50112-3 0  9997
2 25477  45.0076 177.0748 0004026 341.3426  18.7274 14.37725444411206
